SENTINEL-6              
1 46984U 20086A   24103.10133420 -.00000038  00000+0  99593-4 0  9991
2 46984  66.0442 348.5320 0007783 271.2532  88.7592 12.80929686158360
